[{"OBJECT_NAME":"FORTE","OBJECT_ID":"1997-047A","EPOCH":"2026-03-09T21:41:12.798240","MEAN_MOTION":14.27898785,"ECCENTRICITY":0.00196357,"INCLINATION":69.9517,"RA_OF_ASC_NODE":238.2652,"ARG_OF_PERICENTER":49.0734,"MEAN_ANOMALY":311.2084,"EPHEMERIS_TYPE":0,"CLASSIFICATION_TYPE":"U","NORAD_CAT_ID":24920,"ELEMENT_SET_NO":999,"REV_AT_EPOCH":48451,"BSTAR":0.0001374801,"MEAN_MOTION_DOT":2.83e-6,"MEAN_MOTION_DDOT":0},{"OBJECT_NAME":"SL-8 R\/B","OBJECT_ID":"1983-103B","EPOCH":"2026-03-09T17:19:25.319712","MEAN_MOTION":14.37362004,"ECCENTRICITY":0.00275661,"INCLINATION":74.0461,"RA_OF_ASC_NODE":162.5618,"ARG_OF_PERICENTER":297.7676,"MEAN_ANOMALY":62.0683,"EPHEMERIS_TYPE":0,"CLASSIFICATION_TYPE":"U","NORAD_CAT_ID":14402,"ELEMENT_SET_NO":999,"REV_AT_EPOCH":21964,"BSTAR":0.00011047384,"MEAN_MOTION_DOT":3.05e-6,"MEAN_MOTION_DDOT":0}]
